XRISM                   
1 57800U 23137A   23363.41814904  .00005268  00000+0  41699-3 0  9996
2 57800  31.0054  17.7528 0009906 315.4993  44.4846 14.99075511 17025
